[{"OBJECT_NAME":"IRIDIUM 152","OBJECT_ID":"2018-047D","EPOCH":"2026-03-15T04:38:30.279264","MEAN_MOTION":14.34217693,"ECCENTRICITY":0.00022229,"INCLINATION":86.3963,"RA_OF_ASC_NODE":127.6437,"ARG_OF_PERICENTER":91.2763,"MEAN_ANOMALY":268.8688,"EPHEMERIS_TYPE":0,"CLASSIFICATION_TYPE":"U","NORAD_CAT_ID":43479,"ELEMENT_SET_NO":999,"REV_AT_EPOCH":40901,"BSTAR":4.0097884e-5,"MEAN_MOTION_DOT":1.32e-6,"MEAN_MOTION_DDOT":0},{"OBJECT_NAME":"IRIDIUM 147","OBJECT_ID":"2018-047E","EPOCH":"2026-03-15T04:47:38.277312","MEAN_MOTION":14.34217884,"ECCENTRICITY":0.0002302,"INCLINATION":86.3964,"RA_OF_ASC_NODE":127.6446,"ARG_OF_PERICENTER":98.159,"MEAN_ANOMALY":261.9867,"EPHEMERIS_TYPE":0,"CLASSIFICATION_TYPE":"U","NORAD_CAT_ID":43480,"ELEMENT_SET_NO":999,"REV_AT_EPOCH":40901,"BSTAR":4.1337151e-5,"MEAN_MOTION_DOT":1.36e-6,"MEAN_MOTION_DDOT":0},{"OBJECT_NAME":"IRIDIUM 110","OBJECT_ID":"2018-047F","EPOCH":"2026-03-15T04:56:46.309056","MEAN_MOTION":14.34217624,"ECCENTRICITY":0.0002265,"INCLINATION":86.397,"RA_OF_ASC_NODE":127.731,"ARG_OF_PERICENTER":84.7258,"MEAN_ANOMALY":275.4196,"EPHEMERIS_TYPE":0,"CLASSIFICATION_TYPE":"U","NORAD_CAT_ID":43481,"ELEMENT_SET_NO":999,"REV_AT_EPOCH":40900,"BSTAR":8.46882e-7,"MEAN_MOTION_DOT":2.2e-7,"MEAN_MOTION_DDOT":0},{"OBJECT_NAME":"IRIDIUM 162","OBJECT_ID":"2018-047G","EPOCH":"2026-03-15T05:15:57.777408","MEAN_MOTION":14.43278969,"ECCENTRICITY":0.00021518,"INCLINATION":86.4486,"RA_OF_ASC_NODE":127.6646,"ARG_OF_PERICENTER":95.121,"MEAN_ANOMALY":265.0236,"EPHEMERIS_TYPE":0,"CLASSIFICATION_TYPE":"U","NORAD_CAT_ID":43482,"ELEMENT_SET_NO":999,"REV_AT_EPOCH":41157,"BSTAR":9.2366342e-5,"MEAN_MOTION_DOT":3.31e-6,"MEAN_MOTION_DDOT":0},{"OBJECT_NAME":"IRIDIUM 160","OBJECT_ID":"2018-061A","EPOCH":"2026-03-15T06:59:42.513792","MEAN_MOTION":14.34217724,"ECCENTRICITY":0.00023292,"INCLINATION":86.3911,"RA_OF_ASC_NODE":96.0713,"ARG_OF_PERICENTER":90.1791,"MEAN_ANOMALY":269.9672,"EPHEMERIS_TYPE":0,"CLASSIFICATION_TYPE":"U","NORAD_CAT_ID":43569,"ELEMENT_SET_NO":999,"REV_AT_EPOCH":39991,"BSTAR":1.2724506e-5,"MEAN_MOTION_DOT":5.5e-7,"MEAN_MOTION_DDOT":0},{"OBJECT_NAME":"IRIDIUM 166","OBJECT_ID":"2018-061B","EPOCH":"2026-03-15T07:36:14.497344","MEAN_MOTION":14.34217657,"ECCENTRICITY":0.00022629,"INCLINATION":86.3909,"RA_OF_ASC_NODE":96.0124,"ARG_OF_PERICENTER":94.7251,"MEAN_ANOMALY":265.4203,"EPHEMERIS_TYPE":0,"CLASSIFICATION_TYPE":"U","NORAD_CAT_ID":43570,"ELEMENT_SET_NO":999,"REV_AT_EPOCH":39994,"BSTAR":8.511783e-6,"MEAN_MOTION_DOT":4.4e-7,"MEAN_MOTION_DDOT":0},{"OBJECT_NAME":"IRIDIUM 158","OBJECT_ID":"2018-061C","EPOCH":"2026-03-15T03:29:38.505120","MEAN_MOTION":14.34217669,"ECCENTRICITY":0.00020695,"INCLINATION":86.3909,"RA_OF_ASC_NODE":96.0941,"ARG_OF_PERICENTER":90.0574,"MEAN_ANOMALY":270.0859,"EPHEMERIS_TYPE":0,"CLASSIFICATION_TYPE":"U","NORAD_CAT_ID":43571,"ELEMENT_SET_NO":999,"REV_AT_EPOCH":39988,"BSTAR":2.3740531e-5,"MEAN_MOTION_DOT":8.6e-7,"MEAN_MOTION_DDOT":0},{"OBJECT_NAME":"IRIDIUM 165","OBJECT_ID":"2018-061D","EPOCH":"2026-03-15T02:25:42.487680","MEAN_MOTION":14.34217567,"ECCENTRICITY":0.00022548,"INCLINATION":86.3909,"RA_OF_ASC_NODE":96.1573,"ARG_OF_PERICENTER":95.5093,"MEAN_ANOMALY":264.636,"EPHEMERIS_TYPE":0,"CLASSIFICATION_TYPE":"U","NORAD_CAT_ID":43572,"ELEMENT_SET_NO":999,"REV_AT_EPOCH":39990,"BSTAR":1.066091e-5,"MEAN_MOTION_DOT":5.0e-7,"MEAN_MOTION_DDOT":0},{"OBJECT_NAME":"IRIDIUM 155","OBJECT_ID":"2018-061E","EPOCH":"2026-03-15T01:30:54.463104","MEAN_MOTION":14.34217761,"ECCENTRICITY":0.00020801,"INCLINATION":86.3906,"RA_OF_ASC_NODE":96.0468,"ARG_OF_PERICENTER":94.0911,"MEAN_ANOMALY":266.0523,"EPHEMERIS_TYPE":0,"CLASSIFICATION_TYPE":"U","NORAD_CAT_ID":43573,"ELEMENT_SET_NO":999,"REV_AT_EPOCH":39986,"BSTAR":1.2911753e-5,"MEAN_MOTION_DOT":5.6e-7,"MEAN_MOTION_DDOT":0},{"OBJECT_NAME":"IRIDIUM 154","OBJECT_ID":"2018-061F","EPOCH":"2026-03-15T01:03:30.532896","MEAN_MOTION":14.34217275,"ECCENTRICITY":0.00021958,"INCLINATION":86.3915,"RA_OF_ASC_NODE":96.1838,"ARG_OF_PERICENTER":96.4404,"MEAN_ANOMALY":263.7042,"EPHEMERIS_TYPE":0,"CLASSIFICATION_TYPE":"U","NORAD_CAT_ID":43574,"ELEMENT_SET_NO":999,"REV_AT_EPOCH":39991,"BSTAR":-4.1609131e-5,"MEAN_MOTION_DOT":-9.7e-7,"MEAN_MOTION_DDOT":0},{"OBJECT_NAME":"IRIDIUM 163","OBJECT_ID":"2018-061G","EPOCH":"2026-03-15T07:17:58.427808","MEAN_MOTION":14.34217507,"ECCENTRICITY":0.00020663,"INCLINATION":86.391,"RA_OF_ASC_NODE":95.9931,"ARG_OF_PERICENTER":91.0032,"MEAN_ANOMALY":269.1401,"EPHEMERIS_TYPE":0,"CLASSIFICATION_TYPE":"U","NORAD_CAT_ID":43575,"ELEMENT_SET_NO":999,"REV_AT_EPOCH":39992,"BSTAR":-6.22067e-7,"MEAN_MOTION_DOT":1.8e-7,"MEAN_MOTION_DDOT":0},{"OBJECT_NAME":"IRIDIUM 156","OBJECT_ID":"2018-061H","EPOCH":"2026-03-15T03:20:30.441408","MEAN_MOTION":14.34217693,"ECCENTRICITY":0.00020859,"INCLINATION":86.3908,"RA_OF_ASC_NODE":96.0694,"ARG_OF_PERICENTER":95.2079,"MEAN_ANOMALY":264.9355,"EPHEMERIS_TYPE":0,"CLASSIFICATION_TYPE":"U","NORAD_CAT_ID":43576,"ELEMENT_SET_NO":999,"REV_AT_EPOCH":39989,"BSTAR":1.3458406e-5,"MEAN_MOTION_DOT":5.7e-7,"MEAN_MOTION_DDOT":0},{"OBJECT_NAME":"IRIDIUM 164","OBJECT_ID":"2018-061J","EPOCH":"2026-03-15T07:54:30.343968","MEAN_MOTION":14.34218312,"ECCENTRICITY":0.00024352,"INCLINATION":86.3913,"RA_OF_ASC_NODE":96.0287,"ARG_OF_PERICENTER":94.0217,"MEAN_ANOMALY":266.1257,"EPHEMERIS_TYPE":0,"CLASSIFICATION_TYPE":"U","NORAD_CAT_ID":43577,"ELEMENT_SET_NO":999,"REV_AT_EPOCH":39996,"BSTAR":1.6503624e-5,"MEAN_MOTION_DOT":6.6e-7,"MEAN_MOTION_DDOT":0},{"OBJECT_NAME":"IRIDIUM 159","OBJECT_ID":"2018-061K","EPOCH":"2026-03-15T07:08:50.530848","MEAN_MOTION":14.34217036,"ECCENTRICITY":0.00021986,"INCLINATION":86.391,"RA_OF_ASC_NODE":95.9807,"ARG_OF_PERICENTER":88.5721,"MEAN_ANOMALY":271.5727,"EPHEMERIS_TYPE":0,"CLASSIFICATION_TYPE":"U","NORAD_CAT_ID":43578,"ELEMENT_SET_NO":999,"REV_AT_EPOCH":39992,"BSTAR":-2.0396892e-5,"MEAN_MOTION_DOT":-3.7e-7,"MEAN_MOTION_DDOT":0},{"OBJECT_NAME":"IRIDIUM 180","OBJECT_ID":"2019-002A","EPOCH":"2026-03-15T03:47:10.959072","MEAN_MOTION":14.3421795,"ECCENTRICITY":0.00022444,"INCLINATION":86.3983,"RA_OF_ASC_NODE":32.8795,"ARG_OF_PERICENTER":84.3614,"MEAN_ANOMALY":275.7838,"EPHEMERIS_TYPE":0,"CLASSIFICATION_TYPE":"U","NORAD_CAT_ID":43922,"ELEMENT_SET_NO":999,"REV_AT_EPOCH":37551,"BSTAR":1.6446609e-5,"MEAN_MOTION_DOT":6.6e-7,"MEAN_MOTION_DDOT":0},{"OBJECT_NAME":"IRIDIUM 176","OBJECT_ID":"2019-002B","EPOCH":"2026-03-14T22:56:17.751264","MEAN_MOTION":14.72250642,"ECCENTRICITY":0.00024619,"INCLINATION":86.6109,"RA_OF_ASC_NODE":32.9202,"ARG_OF_PERICENTER":91.1191,"MEAN_ANOMALY":269.0309,"EPHEMERIS_TYPE":0,"CLASSIFICATION_TYPE":"U","NORAD_CAT_ID":43923,"ELEMENT_SET_NO":999,"REV_AT_EPOCH":38538,"BSTAR":8.7662781e-5,"MEAN_MOTION_DOT":5.77e-6,"MEAN_MOTION_DDOT":0},{"OBJECT_NAME":"IRIDIUM 168","OBJECT_ID":"2019-002C","EPOCH":"2026-03-14T22:36:38.906208","MEAN_MOTION":14.34219652,"ECCENTRICITY":0.00021481,"INCLINATION":86.3985,"RA_OF_ASC_NODE":33.0441,"ARG_OF_PERICENTER":86.4807,"MEAN_ANOMALY":273.6635,"EPHEMERIS_TYPE":0,"CLASSIFICATION_TYPE":"U","NORAD_CAT_ID":43924,"ELEMENT_SET_NO":999,"REV_AT_EPOCH":37546,"BSTAR":9.617194e-5,"MEAN_MOTION_DOT":2.89e-6,"MEAN_MOTION_DDOT":0}]
