IRIDIUM 152             
1 43479U 18047D   26074.19340601  .00000132  00000+0  40098-4 0  9990
2 43479  86.3963 127.6437 0002222  91.2763 268.8688 14.34217693409010
IRIDIUM 147             
1 43480U 18047E   26074.19974858  .00000136  00000+0  41337-4 0  9990
2 43480  86.3964 127.6446 0002302  98.1590 261.9867 14.34217884409011
IRIDIUM 110             
1 43481U 18047F   26074.20609154  .00000022  00000+0  84688-6 0  9999
2 43481  86.3970 127.7310 0002265  84.7258 275.4196 14.34217624409006
IRIDIUM 162             
1 43482U 18047G   26074.21941872  .00000331  00000+0  92366-4 0  9990
2 43482  86.4486 127.6646 0002151  95.1210 265.0236 14.43278969411573
IRIDIUM 160             
1 43569U 18061A   26074.29146428  .00000055  00000+0  12725-4 0  9998
2 43569  86.3911  96.0713 0002329  90.1791 269.9672 14.34217724399913
IRIDIUM 166             
1 43570U 18061B   26074.31683446  .00000044  00000+0  85118-5 0  9994
2 43570  86.3909  96.0124 0002262  94.7251 265.4203 14.34217657399944
IRIDIUM 158             
1 43571U 18061C   26074.14558455  .00000086  00000+0  23741-4 0  9996
2 43571  86.3909  96.0941 0002069  90.0574 270.0859 14.34217669399889
IRIDIUM 165             
1 43572U 18061D   26074.10118620  .00000050  00000+0  10661-4 0  9997
2 43572  86.3909  96.1573 0002254  95.5093 264.6360 14.34217567399900
IRIDIUM 155             
1 43573U 18061E   26074.06313036  .00000056  00000+0  12912-4 0  9998
2 43573  86.3906  96.0468 0002080  94.0911 266.0523 14.34217761399868
IRIDIUM 154             
1 43574U 18061F   26074.04410339 -.00000097  00000+0 -41609-4 0  9993
2 43574  86.3915  96.1838 0002195  96.4404 263.7042 14.34217275399917
IRIDIUM 163             
1 43575U 18061G   26074.30414847  .00000018  00000+0 -62207-6 0  9992
2 43575  86.3910  95.9931 0002066  91.0032 269.1401 14.34217507399927
IRIDIUM 156             
1 43576U 18061H   26074.13924122  .00000057  00000+0  13458-4 0  9990
2 43576  86.3908  96.0694 0002085  95.2079 264.9355 14.34217693399894
IRIDIUM 164             
1 43577U 18061J   26074.32951787  .00000066  00000+0  16504-4 0  9994
2 43577  86.3913  96.0287 0002435  94.0217 266.1257 14.34218312399961
IRIDIUM 159             
1 43578U 18061K   26074.29780707 -.00000037  00000+0 -20397-4 0  9998
2 43578  86.3910  95.9807 0002198  88.5721 271.5727 14.34217036399929
IRIDIUM 180             
1 43922U 19002A   26074.15776573  .00000066  00000+0  16447-4 0  9999
2 43922  86.3983  32.8795 0002244  84.3614 275.7838 14.34217950375518
IRIDIUM 176             
1 43923U 19002B   26073.95576101  .00000577  00000+0  87663-4 0  9997
2 43923  86.6109  32.9202 0002461  91.1191 269.0309 14.72250642385385
IRIDIUM 168             
1 43924U 19002C   26073.94211697  .00000289  00000+0  96172-4 0  9998
2 43924  86.3985  33.0441 0002148  86.4807 273.6635 14.34219652375460
